*******************************************************************************
 Revised: April 12, 2021                Venus                           299 / 2

 PHYSICAL DATA (updated 2020-Oct-19):
  Vol. Mean Radius (km) =  6051.84+-0.01 Density (g/cm^3)      =  5.204
  Mass x10^23 (kg)      =    48.685      Volume (x10^10 km^3)  = 92.843
  Sidereal rot. period  =   243.018484 d Sid. Rot. Rate (rad/s)= -0.00000029924
  Mean solar day        =   116.7490 d   Equ. gravity  m/s^2   =  8.870
  Mom. of Inertia       =     0.33       Core radius (km)      = ~3200
  Geometric Albedo      =     0.65       Potential Love # k2   = ~0.25
  GM (km^3/s^2)         = 324858.592     Equatorial Radius, Re = 6051.893 km
  GM 1-sigma (km^3/s^2) =    +-0.006     Mass ratio (Sun/Venus)= 408523.72
  Atmos. pressure (bar) =  90            Max. angular diam.    =   60.2"
  Mean Temperature (K)  = 735            Visual mag. V(1,0)    =   -4.40
  Obliquity to orbit    = 177.3 deg      Hill's sphere rad.,Rp =  167.1
  Sidereal orb. per., y =   0.61519726   Orbit speed, km/s     =   35.021
  Sidereal orb. per., d = 224.70079922   Escape speed, km/s    =   10.361
                                 Perihelion  Aphelion    Mean
  Solar Constant (W/m^2)         2759         2614       2650
  Maximum Planetary IR (W/m^2)    153         153         153
  Minimum Planetary IR (W/m^2)    153         153         153
*******************************************************************************


*******************************************************************************
Ephemeris / WWW_USER Thu Nov 13 09:10:09 2025 Pasadena, USA      / Horizons
*******************************************************************************
Target body name: Venus (299)                     {source: DE441}
Center body name: Sun (10)                        {source: DE441}
Center-site name: BODY CENTER
*******************************************************************************
Start time      : A.D. 1998-Apr-26 00:00:00.0000 TDB
Stop  time      : A.D. 1999-Jun-24 00:00:00.0000 TDB
Step-size       : 1440 minutes
*******************************************************************************
Center geodetic : 0.0, 0.0, 0.0                   {E-lon(deg),Lat(deg),Alt(km)}
Center cylindric: 0.0, 0.0, 0.0                   {E-lon(deg),Dxy(km),Dz(km)}
Center radii    : 695700.0, 695700.0, 695700.0 km {Equator_a, b, pole_c}
Output units    : AU-D
Calendar mode   : Mixed Julian/Gregorian
Output type     : GEOMETRIC cartesian states
Output format   : 2 (position and velocity)
Reference frame : Ecliptic of J2000.0
*******************************************************************************
            JDTDB,            Calendar Date (TDB),                      X,                      Y,                      Z,                     VX,                     VY,                     VZ,
**************************************************************************************************************************************************************************************************
$$SOE
2451139.500000000, A.D. 1998-Nov-22 00:00:00.0000, -2.124054416381780E-01, -6.941049939187258E-01,  2.777450308242094E-03,  1.920320495886846E-02, -6.003306495510568E-03, -1.190456153263684E-03,
2451140.500000000, A.D. 1998-Nov-23 00:00:00.0000, -1.931225640512410E-01, -6.998390767158753E-01,  1.586073453944428E-03,  1.936005180388676E-02, -5.464162853554568E-03, -1.192143830747993E-03,
2451141.500000000, A.D. 1998-Nov-24 00:00:00.0000, -1.736903518929544E-01, -7.050319966740400E-01,  3.934701294317899E-04,  1.950185744282794E-02, -4.921050428638595E-03, -1.192909083189368E-03,
2451142.500000000, A.D. 1998-Nov-25 00:00:00.0000, -1.541238944365071E-01, -7.096799941902763E-01, -7.994373236715827E-04,  1.962852765134912E-02, -4.374387917260495E-03, -1.192752192260412E-03,
2451143.500000000, A.D. 1998-Nov-26 00:00:00.0000, -1.344383694463135E-01, -7.137797293163025E-01, -1.991727189416799E-03,  1.973997967455787E-02, -3.824595881055797E-03, -1.191674127122395E-03,
2451144.500000000, A.D. 1998-Nov-27 00:00:00.0000, -1.146490317002074E-01, -7.173282834702783E-01, -3.182479063397245E-03,  1.983614224243579E-02, -3.272096440301837E-03, -1.189676541109827E-03,
2451145.500000000, A.D. 1998-Nov-28 00:00:00.0000, -9.477120150005722E-02, -7.203231608427841E-01, -4.370774535086107E-03,  1.991695557759198E-02, -2.717312968844843E-03, -1.186761767990546E-03,
2451146.500000000, A.D. 1998-Nov-29 00:00:00.0000, -7.482025317840758E-02, -7.227622894985134E-01, -5.555697866228205E-03,  1.998237139548021E-02, -2.160669790629503E-03, -1.182932817813439E-03,
2451147.500000000, A.D. 1998-Nov-30 00:00:00.0000, -5.481160360861304E-02, -7.246440221753683E-01, -6.736336664877177E-03,  2.003235289722283E-02, -1.602591878002733E-03, -1.178193372356596E-03,
2451148.500000000, A.D. 1998-Dec-01 00:00:00.0000, -3.476070072578128E-02, -7.259671367828142E-01, -7.911782554687568E-03,  2.006687475519323E-02, -1.043504551951719E-03, -1.172547780189074E-03,
2451149.500000000, A.D. 1998-Dec-02 00:00:00.0000, -1.468301206568828E-02, -7.267308366014984E-01, -9.081131839080790E-03,  2.008592309151658E-02, -4.838331844205146E-04, -1.166001051359453E-03,
2451150.500000000, A.D. 1998-Dec-03 00:00:00.0000,  5.405986671335477E-03, -7.269347501862797E-01, -1.024348615991760E-02,  2.008949544965622E-02,  7.599709717015714E-05, -1.158558851723926E-03,
2451151.500000000, A.D. 1998-Dec-04 00:00:00.0000,  2.549082302472076E-02, -7.265789309749208E-01, -1.139795315032482E-02,  2.007760075926003E-02,  6.355617030989063E-04, -1.150227496925943E-03,
2451152.500000000, A.D. 1998-Dec-05 00:00:00.0000,  4.555603913952658E-02, -7.256638566047899E-01, -1.254364708133091E-02,  2.005025929444774E-02,  1.194436872142143E-03, -1.141013946038257E-03,
2451153.500000000, A.D. 1998-Dec-06 00:00:00.0000,  6.558620308735734E-02, -7.241904279399796E-01, -1.367968950197666E-02,  2.000750262561631E-02,  1.752199959923828E-03, -1.130925794868622E-03,
2451154.500000000, A.D. 1998-Dec-07 00:00:00.0000,  8.556592013591172E-02, -7.221599678113235E-01, -1.480520987256671E-02,  1.994937356497050E-02,  2.308429724773066E-03, -1.119971268941563E-03,
2451155.500000000, A.D. 1998-Dec-08 00:00:00.0000,  1.054798439609657E-01, -7.195742194718157E-01, -1.591934619074239E-02,  1.987592610582711E-02,  2.862706611043997E-03, -1.108159216153981E-03,
2451156.500000000, A.D. 1998-Dec-09 00:00:00.0000,  1.253126877945807E-01, -7.164353447700123E-01, -1.702124561004723E-02,  1.978722535579993E-02,  3.414613029821724E-03, -1.095499099109634E-03,
2451157.500000000, A.D. 1998-Dec-10 00:00:00.0000,  1.450492355034769E-01, -7.127459220440552E-01, -1.811006505066927E-02,  1.968334746395161E-02,  3.963733636964359E-03, -1.082000987136952E-03,
2451158.500000000, A.D. 1998-Dec-11 00:00:00.0000,  1.646743525915715E-01, -7.085089437390162E-01, -1.918497180204342E-02,  1.956437954198752E-02,  4.509655608405060E-03, -1.067675547993198E-03,
2451159.500000000, A.D. 1998-Dec-12 00:00:00.0000,  1.841729971207670E-01, -7.037278137503457E-01, -2.024514411700466E-02,  1.943041957957446E-02,  5.051968912625615E-03, -1.052534039261454E-03,
2451160.500000000, A.D. 1998-Dec-13 00:00:00.0000,  2.035302305441580E-01, -6.984063444962977E-01, -2.128977179718614E-02,  1.928157635387442E-02,  5.590266580216510E-03, -1.036588299447737E-03,
2451161.500000000, A.D. 1998-Dec-14 00:00:00.0000,  2.227312284459183E-01, -6.925487537222850E-01, -2.231805676936980E-02,  1.911796933339007E-02,  6.124144970442490E-03, -1.019850738786022E-03,
2451162.500000000, A.D. 1998-Dec-15 00:00:00.0000,  2.417612911822322E-01, -6.861596610401997E-01, -2.332921365249732E-02,  1.893972857622181E-02,  6.653204034737457E-03, -1.002334329759295E-03,
2451163.500000000, A.D. 1998-Dec-16 00:00:00.0000,  2.606058544177306E-01, -6.792440842058020E-01, -2.432247031506475E-02,  1.874699462283903E-02,  7.177047577058047E-03, -9.840525973447733E-04,
2451164.500000000, A.D. 1998-Dec-17 00:00:00.0000,  2.792504995519978E-01, -6.718074351373543E-01, -2.529706842262708E-02,  1.853991838346783E-02,  7.695283511031560E-03, -9.650196089912784E-04,
2451165.500000000, A.D. 1998-Dec-18 00:00:00.0000,  2.976809640308172E-01, -6.638555156787329E-01, -2.625226397515031E-02,  1.831866102019573E-02,  8.207524113840885E-03, -9.452499643363306E-04,
2451166.500000000, A.D. 1998-Dec-19 00:00:00.0000,  3.158831515369204E-01, -6.553945131103096E-01, -2.718732783395259E-02,  1.808339382389063E-02,  8.713386276796836E-03, -9.247587846698789E-04,
2451167.500000000, A.D. 1998-Dec-20 00:00:00.0000,  3.338431420551004E-01, -6.464309954109333E-01, -2.810154623798505E-02,  1.783429808602505E-02,  9.212491752556741E-03, -9.035617021507149E-04,
2451168.500000000, A.D. 1998-Dec-21 00:00:00.0000,  3.515472018066376E-01, -6.369719062743829E-01, -2.899422130920794E-02,  1.757156496548969E-02,  9.704467398957427E-03, -8.816748487804750E-04,
2451169.500000000, A.D. 1998-Dec-22 00:00:00.0000,  3.689817930480655E-01, -6.270245598837094E-01, -2.986467154682212E-02,  1.729539535047635E-02,  1.018894541938412E-02, -8.591148451424118E-04,
2451170.500000000, A.D. 1998-Dec-23 00:00:00.0000,  3.861335837293943E-01, -6.165966354469462E-01, -3.071223231012287E-02,  1.700599971551375E-02,  1.066556359969206E-02, -8.358987889077717E-04,
2451171.500000000, A.D. 1998-Dec-24 00:00:00.0000,  4.029894570069599E-01, -6.056961714976354E-01, -3.153625628974654E-02,  1.670359797370752E-02,  1.113396554160769E-02, -8.120442431148378E-04,
2451172.500000000, A.D. 1998-Dec-25 00:00:00.0000,  4.195365206061619E-01, -5.943315599637413E-01, -3.233611396708400E-02,  1.638841932427667E-02,  1.159380089257219E-02, -7.875692242257516E-04,
2451173.500000000, A.D. 1998-Dec-26 00:00:00.0000,  4.357621160293967E-01, -5.825115400085011E-01, -3.311119406164129E-02,  1.606070209542276E-02,  1.204472557200829E-02, -7.624921899635373E-04,
